[{"OBJECT_NAME":"CARTOSAT-2A","OBJECT_ID":"2008-021A","EPOCH":"2026-03-10T00:17:01.509792","MEAN_MOTION":14.79100763,"ECCENTRICITY":0.00132764,"INCLINATION":97.7772,"RA_OF_ASC_NODE":121.0502,"ARG_OF_PERICENTER":75.3983,"MEAN_ANOMALY":284.87,"EPHEMERIS_TYPE":0,"CLASSIFICATION_TYPE":"U","NORAD_CAT_ID":32783,"ELEMENT_SET_NO":999,"REV_AT_EPOCH":96414,"BSTAR":9.5052975e-5,"MEAN_MOTION_DOT":6.55e-6,"MEAN_MOTION_DDOT":0},{"OBJECT_NAME":"DELTA 1 R\/B(1)","OBJECT_ID":"1977-048B","EPOCH":"2026-03-09T10:59:30.987456","MEAN_MOTION":13.38972094,"ECCENTRICITY":0.07269425,"INCLINATION":28.4195,"RA_OF_ASC_NODE":233.6552,"ARG_OF_PERICENTER":263.7493,"MEAN_ANOMALY":87.9832,"EPHEMERIS_TYPE":0,"CLASSIFICATION_TYPE":"U","NORAD_CAT_ID":10062,"ELEMENT_SET_NO":999,"REV_AT_EPOCH":37364,"BSTAR":0.00014514568,"MEAN_MOTION_DOT":5.06e-6,"MEAN_MOTION_DDOT":0}]
